[{"OBJECT_NAME":"STARLINK-1166","OBJECT_ID":"2020-006S","EPOCH":"2026-03-09T23:09:54.990720","MEAN_MOTION":15.45354542,"ECCENTRICITY":0.00047188,"INCLINATION":53.0527,"RA_OF_ASC_NODE":271.3766,"ARG_OF_PERICENTER":148.0301,"MEAN_ANOMALY":212.0992,"EPHEMERIS_TYPE":0,"CLASSIFICATION_TYPE":"U","NORAD_CAT_ID":45060,"ELEMENT_SET_NO":999,"REV_AT_EPOCH":33670,"BSTAR":0.0022317657,"MEAN_MOTION_DOT":0.00109358,"MEAN_MOTION_DDOT":0},{"OBJECT_NAME":"STARLINK-1356","OBJECT_ID":"2020-025AK","EPOCH":"2026-03-09T09:47:10.727520","MEAN_MOTION":15.44776817,"ECCENTRICITY":0.0005933,"INCLINATION":53.0527,"RA_OF_ASC_NODE":75.1976,"ARG_OF_PERICENTER":32.1669,"MEAN_ANOMALY":327.9698,"EPHEMERIS_TYPE":0,"CLASSIFICATION_TYPE":"U","NORAD_CAT_ID":45564,"ELEMENT_SET_NO":999,"REV_AT_EPOCH":32550,"BSTAR":0.0018744498,"MEAN_MOTION_DOT":0.00089774,"MEAN_MOTION_DDOT":0}]
